NORAD_CAT_ID,OBJECT_NAME,OBJECT_TYPE,EPOCH,MEAN_MOTION,ECCENTRICITY,INCLINATION,RA_OF_ASC_NODE,ARG_OF_PERICENTER,MEAN_ANOMALY,BSTAR,MEAN_MOTION_DOT,MEAN_MOTION_DDOT,TLE_LINE0,TLE_LINE1,TLE_LINE2,SEMIMAJOR_AXIS,PERIOD,APOGEE,PERIGEE,DECAYED
54164.0,STARLINK-5278,PAYLOAD,2024-07-29 11:18:26,15.08826358,0.0001468,53.2181,124.9506,112.0362,248.0786,0.00030143,4.511e-05,0.0,0 STARLINK-5278,1 54164U 22141H   24211.47113997  .00004511  00000-0  30143-3 0  9996,2 54164  53.2181 124.9506 0001468 112.0362 248.0786 15.08826358 97055,6917.922,95.438,540.803,538.772,0.0
54164.0,STARLINK-5278,PAYLOAD,2024-07-29 22:26:06,15.08892703,0.0001658,53.2181,122.8683,89.0907,271.0275,-0.00070502,-0.00011507,0.0,0 STARLINK-5278,1 54164U 22141H   24211.93479831 -.00011507  00000-0 -70502-3 0  9997,2 54164  53.2181 122.8683 0001658  89.0907 271.0275 15.08892703 97121,6917.719,95.434,540.731,538.437,0.0
54164.0,STARLINK-5278,PAYLOAD,2024-07-30 01:36:54,15.08843766,0.000129,53.2172,122.2726,98.3591,261.7548,0.00019648,2.841e-05,0.0,0 STARLINK-5278,1 54164U 22141H   24212.06729673  .00002841  00000-0  19648-3 0  9997,2 54164  53.2172 122.2726 0001290  98.3591 261.7548 15.08843766 97143,6917.869,95.437,540.626,538.841,0.0
54164.0,STARLINK-5278,PAYLOAD,2024-07-30 11:09:13,15.08848213,0.000139,53.2175,120.4885,90.8002,269.3149,0.00019475,2.814e-05,0.0,0 STARLINK-5278,1 54164U 22141H   24212.46473426  .00002814  00000-0  19475-3 0  9991,2 54164  53.2175 120.4885 0001390  90.8002 269.3149 15.08848213 97207,6917.855,95.437,540.682,538.759,0.0
54164.0,STARLINK-5278,PAYLOAD,2024-07-30 22:16:55,15.08842936,0.0001497,53.2177,118.4069,87.618,272.4984,0.00016684,2.368e-05,0.0,0 STARLINK-5278,1 54164U 22141H   24212.92841891  .00002368  00000-0  16684-3 0  9990,2 54164  53.2177 118.4069 0001497  87.6180 272.4984 15.08842936 97274,6917.871,95.437,540.772,538.701,0.0
54164.0,STARLINK-5278,PAYLOAD,2024-07-31 01:27:41,15.08849828,0.0001403,53.2169,117.8123,87.9074,272.2078,0.00012516,1.705e-05,0.0,0 STARLINK-5278,1 54164U 22141H   24213.06089409  .00001705  00000-0  12516-3 0  9999,2 54164  53.2169 117.8123 0001403  87.9074 272.2078 15.08849828 97292,6917.85,95.437,540.686,538.745,0.0
54164.0,STARLINK-5278,PAYLOAD,2024-07-31 22:07:42,15.08837599,0.0001219,53.2171,113.946,115.4232,244.6886,7.3942e-07,-2.76e-06,0.0,0 STARLINK-5278,1 54164U 22141H   24213.92202358 -.00000276  00000-0  73942-6 0  9990,2 54164  53.2171 113.9460 0001219 115.4232 244.6886 15.08837599 97421,6917.888,95.438,540.596,538.909,0.0
54164.0,STARLINK-5278,PAYLOAD,2024-07-31 23:43:06,15.08838052,0.0001416,53.2179,113.6488,99.4139,260.7013,4.6699e-06,-2.14e-06,0.0,0 STARLINK-5278,1 54164U 22141H   24213.98826507 -.00000214  00000-0  46699-5 0  9994,2 54164  53.2179 113.6488 0001416  99.4139 260.7013 15.08838052 97439,6917.886,95.438,540.731,538.772,0.0
54164.0,STARLINK-5278,PAYLOAD,2024-08-01 10:50:47,15.08847168,0.0001359,53.217,111.5678,92.1598,267.955,3.0213e-05,1.93e-06,0.0,0 STARLINK-5278,1 54164U 22141H   24214.45193726  .00000193  00000-0  30213-4 0  9996,2 54164  53.2170 111.5678 0001359  92.1598 267.9550 15.08847168 97504,6917.858,95.437,540.664,538.783,0.0
54164.0,STARLINK-5278,PAYLOAD,2024-08-01 21:58:28,15.08855245,0.0001334,53.216,109.4857,94.1302,265.9843,0.0002868,4.281e-05,0.0,0 STARLINK-5278,1 54164U 22141H   24214.91561194  .00004281  00000-0  28680-3 0  9991,2 54164  53.2160 109.4857 0001334  94.1302 265.9843 15.08855245 97571,6917.834,95.437,540.622,538.776,0.0
54164.0,STARLINK-5278,PAYLOAD,2024-08-01 23:33:51,15.08857715,0.0001313,53.216,109.188,96.2267,263.8874,0.00033542,5.057e-05,0.0,0 STARLINK-5278,1 54164U 22141H   24214.98185060  .00005057  00000-0  33542-3 0  9997,2 54164  53.2160 109.1880 0001313  96.2267 263.8874 15.08857715 97580,6917.826,95.436,540.6,538.783,0.0
54164.0,STARLINK-5278,PAYLOAD,2024-08-02 20:13:54,15.08825171,0.0001251,53.2165,105.3209,88.9225,271.191,0.00047041,7.204e-05,0.0,0 STARLINK-5278,1 54164U 22141H   24215.84298970  .00007204  00000-0  47041-3 0  9993,2 54164  53.2165 105.3209 0001251  88.9225 271.1910 15.08825171 97710,6917.926,95.438,540.656,538.925,0.0
54164.0,STARLINK-5278,PAYLOAD,2024-08-02 21:49:16,15.08835628,0.0001176,53.2151,105.0258,77.3873,282.7251,1.4657e-05,-5.5e-07,0.0,0 STARLINK-5278,1 54164U 22141H   24215.90922402 -.00000055  00000-0  14657-4 0  9990,2 54164  53.2151 105.0258 0001176  77.3873 282.7251 15.08835628 97728,6917.894,95.438,540.572,538.945,0.0
54164.0,STARLINK-5278,PAYLOAD,2024-08-03 02:35:26,15.08837933,0.0001171,53.2154,104.1329,81.6932,278.4192,7.7913e-05,9.52e-06,0.0,0 STARLINK-5278,1 54164U 22141H   24216.10794389  .00000952  00000-0  77913-4 0  9993,2 54164  53.2154 104.1329 0001171  81.6932 278.4192 15.08837933 97759,6917.887,95.438,540.562,538.942,0.0
54164.0,STARLINK-5278,PAYLOAD,2024-08-03 23:15:26,15.08849417,0.0001162,53.2161,100.2666,80.44,279.6724,0.00028246,4.211e-05,0.0,0 STARLINK-5278,1 54164U 22141H   24216.96906102  .00004211  00000-0  28246-3 0  9991,2 54164  53.2161 100.2666 0001162  80.4400 279.6724 15.08849417 97883,6917.852,95.437,540.52,538.913,0.0
54164.0,STARLINK-5278,PAYLOAD,2024-08-04 08:47:45,15.08853228,0.0001277,53.2163,98.4819,80.3099,279.8037,0.00030049,4.499e-05,0.0,0 STARLINK-5278,1 54164U 22141H   24217.36649847  .00004499  00000-0  30049-3 0  9998,2 54164  53.2163  98.4819 0001277  80.3099 279.8037 15.08853228 97944,6917.84,95.437,540.588,538.822,0.0
54164.0,STARLINK-5278,PAYLOAD,2024-08-04 15:09:18,15.08836167,0.0001637,53.2159,97.2923,87.6682,272.4497,6.8558e-05,8.03e-06,0.0,0 STARLINK-5278,1 54164U 22141H   24217.63146543  .00000803  00000-0  68558-4 0  9995,2 54164  53.2159  97.2923 0001637  87.6682 272.4497 15.08836167 97986,6917.892,95.438,540.89,538.625,0.0
54164.0,STARLINK-5278,PAYLOAD,2024-08-04 19:55:27,15.08844885,0.0001425,53.2155,96.4005,92.3731,267.7424,0.0002309,3.389e-05,0.0,0 STARLINK-5278,1 54164U 22141H   24217.83018239  .00003389  00000-0  23090-3 0  9990,2 54164  53.2155  96.4005 0001425  92.3731 267.7424 15.08844885 98015,6917.865,95.437,540.716,538.745,0.0
54164.0,STARLINK-5278,PAYLOAD,2024-08-04 23:06:13,15.08863272,0.0001292,53.2158,95.8053,84.6516,275.4623,0.00062531,9.684e-05,0.0,0 STARLINK-5278,1 54164U 22141H   24217.96265659  .00009684  00000-0  62531-3 0  9991,2 54164  53.2158  95.8053 0001292  84.6516 275.4623 15.08863272 98031,6917.809,95.436,540.568,538.78,0.0
54164.0,STARLINK-5278,PAYLOAD,2024-08-05 00:41:36,15.08866172,0.0001323,53.2158,95.5079,86.8368,273.2775,0.00076704,0.00011949,0.0,0 STARLINK-5278,1 54164U 22141H   24218.02889580  .00011949  00000-0  76704-3 0  9998,2 54164  53.2158  95.5079 0001323  86.8368 273.2775 15.08866172 98047,6917.8,95.436,540.581,538.75,0.0
54164.0,STARLINK-5278,PAYLOAD,2024-08-05 21:21:38,15.08829453,0.0001866,53.2176,91.6494,100.8821,259.2381,-0.00021568,-3.718e-05,0.0,0 STARLINK-5278,1 54164U 22141H   24218.89002773 -.00003718  00000-0 -21568-3 0  9999,2 54164  53.2176  91.6494 0001866 100.8821 259.2381 15.08829453 98170,6917.913,95.438,541.069,538.487,0.0
54164.0,STARLINK-5278,PAYLOAD,2024-08-05 22:57:01,15.08832799,0.000149,53.2161,91.3454,74.9894,285.1263,-0.00014013,-2.517e-05,0.0,0 STARLINK-5278,1 54164U 22141H   24218.95626676 -.00002517  00000-0 -14013-3 0  9993,2 54164  53.2161  91.3454 0001490  74.9894 285.1263 15.08832799 98186,6917.902,95.438,540.798,538.737,0.0
54164.0,STARLINK-5278,PAYLOAD,2024-08-06 14:50:53,15.08834795,0.000141,53.2157,88.372,94.1309,265.9845,0.00014079,1.953e-05,0.0,0 STARLINK-5278,1 54164U 22141H   24219.61866960  .00001953  00000-0  14079-3 0  9992,2 54164  53.2157  88.3720 0001410  94.1309 265.9845 15.08834795 98281,6917.896,95.438,540.737,538.786,0.0
54164.0,STARLINK-5278,PAYLOAD,2024-08-06 19:37:02,15.08840761,0.0001457,53.2157,87.4804,92.1483,267.9676,0.00023752,3.494e-05,0.0,0 STARLINK-5278,1 54164U 22141H   24219.81738861  .00003494  00000-0  23752-3 0  9992,2 54164  53.2157  87.4804 0001457  92.1483 267.9676 15.08840761 98314,6917.878,95.438,540.751,538.735,0.0
54164.0,STARLINK-5278,PAYLOAD,2024-08-06 21:12:25,15.08842366,0.0001522,53.2165,87.1829,91.8066,268.31,0.00032034,4.814e-05,0.0,0 STARLINK-5278,1 54164U 22141H   24219.88362818  .00004814  00000-0  32034-3 0  9994,2 54164  53.2165  87.1829 0001522  91.8066 268.3100 15.08842366 98324,6917.873,95.437,540.791,538.685,0.0
54164.0,STARLINK-5278,PAYLOAD,2024-08-07 00:23:11,15.08847443,0.0001387,53.2153,86.5873,88.107,272.0081,0.00060544,9.363e-05,0.0,0 STARLINK-5278,1 54164U 22141H   24220.01610779  .00009363  00000-0  60544-3 0  9994,2 54164  53.2153  86.5873 0001387  88.1070 272.0081 15.08847443 98349,6917.858,95.437,540.682,538.763,0.0
54164.0,STARLINK-5278,PAYLOAD,2024-08-07 21:03:12,15.08843838,0.0001425,53.2159,82.7207,81.8524,278.2629,0.0001631,2.309e-05,0.0,0 STARLINK-5278,1 54164U 22141H   24220.87722738  .00002309  00000-0  16310-3 0  9992,2 54164  53.2159  82.7207 0001425  81.8524 278.2629 15.08843838 98475,6917.869,95.437,540.719,538.748,0.0
54164.0,STARLINK-5278,PAYLOAD,2024-08-08 00:13:58,15.0885159,0.0001273,53.217,82.1205,104.147,255.9664,0.00033582,5.062e-05,0.0,0 STARLINK-5278,1 54164U 22141H   24221.00970307  .00005062  00000-0  33582-3 0  9994,2 54164  53.2170  82.1205 0001273 104.1470 255.9664 15.08851590 98497,6917.845,95.437,540.591,538.829,0.0
54164.0,STARLINK-5278,PAYLOAD,2024-08-08 20:53:59,15.08848687,0.0001479,53.2164,78.2586,77.8116,282.3042,0.00014919,2.088e-05,0.0,0 STARLINK-5278,1 54164U 22141H   24221.87082326  .00002088  00000-0  14919-3 0  9992,2 54164  53.2164  78.2586 0001479  77.8116 282.3042 15.08848687 98621,6917.854,95.437,540.742,538.696,0.0
54164.0,STARLINK-5278,PAYLOAD,2024-08-09 00:04:45,15.08852334,0.0001736,53.2156,77.6625,97.9051,262.2138,0.00021753,3.177e-05,0.0,0 STARLINK-5278,1 54164U 22141H   24222.00330069  .00003177  00000-0  21753-3 0  9992,2 54164  53.2156  77.6625 0001736  97.9051 262.2138 15.08852334 98645,6917.843,95.437,540.909,538.507,0.0
